[{"OBJECT_NAME":"STARLINK-4533","OBJECT_ID":"2022-097U","EPOCH":"2026-03-09T12:05:07.330848","MEAN_MOTION":15.08826735,"ECCENTRICITY":0.00020074,"INCLINATION":53.2165,"RA_OF_ASC_NODE":114.9571,"ARG_OF_PERICENTER":97.8373,"MEAN_ANOMALY":262.2847,"EPHEMERIS_TYPE":0,"CLASSIFICATION_TYPE":"U","NORAD_CAT_ID":53406,"ELEMENT_SET_NO":999,"REV_AT_EPOCH":19862,"BSTAR":-0.00010095786,"MEAN_MOTION_DOT":-1.894e-5,"MEAN_MOTION_DDOT":0},{"OBJECT_NAME":"OBJECT E","OBJECT_ID":"2024-205E","EPOCH":"2026-03-09T21:50:57.607872","MEAN_MOTION":15.117677,"ECCENTRICITY":0.00499914,"INCLINATION":97.419,"RA_OF_ASC_NODE":142.6836,"ARG_OF_PERICENTER":337.9131,"MEAN_ANOMALY":21.9945,"EPHEMERIS_TYPE":0,"CLASSIFICATION_TYPE":"U","NORAD_CAT_ID":61898,"ELEMENT_SET_NO":999,"REV_AT_EPOCH":7323,"BSTAR":0.00048588417,"MEAN_MOTION_DOT":8.479e-5,"MEAN_MOTION_DDOT":0}]
